[{"OBJECT_NAME":"SL-14 R/B","OBJECT_ID":"1986-006B","EPOCH":"2026-03-14T13:37:42.384288","MEAN_MOTION":14.86823027,"ECCENTRICITY":0.00750924,"INCLINATION":82.5236,"RA_OF_ASC_NODE":255.1447,"ARG_OF_PERICENTER":256.2867,"MEAN_ANOMALY":102.9982,"EPHEMERIS_TYPE":0,"CLASSIFICATION_TYPE":"U","NORAD_CAT_ID":16496,"ELEMENT_SET_NO":999,"REV_AT_EPOCH":14993,"BSTAR":8.9507699e-5,"MEAN_MOTION_DOT":8.65e-6,"MEAN_MOTION_DDOT":0},{"OBJECT_NAME":"COSMOS 1743","OBJECT_ID":"1986-034A","EPOCH":"2026-03-14T12:30:16.490880","MEAN_MOTION":15.58934649,"ECCENTRICITY":0.00016932,"INCLINATION":82.529,"RA_OF_ASC_NODE":68.7583,"ARG_OF_PERICENTER":244.7461,"MEAN_ANOMALY":115.362,"EPHEMERIS_TYPE":0,"CLASSIFICATION_TYPE":"U","NORAD_CAT_ID":16719,"ELEMENT_SET_NO":999,"REV_AT_EPOCH":18100,"BSTAR":0.00062793788,"MEAN_MOTION_DOT":0.0004894,"MEAN_MOTION_DDOT":0},{"OBJECT_NAME":"SL-14 R/B","OBJECT_ID":"1986-046B","EPOCH":"2026-03-14T12:31:55.799040","MEAN_MOTION":14.85595769,"ECCENTRICITY":0.00222973,"INCLINATION":82.4783,"RA_OF_ASC_NODE":75.614,"ARG_OF_PERICENTER":208.6883,"MEAN_ANOMALY":151.3108,"EPHEMERIS_TYPE":0,"CLASSIFICATION_TYPE":"U","NORAD_CAT_ID":16792,"ELEMENT_SET_NO":999,"REV_AT_EPOCH":12712,"BSTAR":6.3319674e-5,"MEAN_MOTION_DOT":5.74e-6,"MEAN_MOTION_DDOT":0},{"OBJECT_NAME":"SL-14 R/B","OBJECT_ID":"1986-055B","EPOCH":"2026-03-14T14:26:52.029312","MEAN_MOTION":14.85647601,"ECCENTRICITY":0.00178014,"INCLINATION":82.5191,"RA_OF_ASC_NODE":122.0567,"ARG_OF_PERICENTER":319.5789,"MEAN_ANOMALY":192.9597,"EPHEMERIS_TYPE":0,"CLASSIFICATION_TYPE":"U","NORAD_CAT_ID":16882,"ELEMENT_SET_NO":999,"REV_AT_EPOCH":12009,"BSTAR":5.3663504e-5,"MEAN_MOTION_DOT":4.9e-6,"MEAN_MOTION_DDOT":0},{"OBJECT_NAME":"AJISAI (EGS)","OBJECT_ID":"1986-061A","EPOCH":"2026-03-14T15:00:42.485472","MEAN_MOTION":12.4451569,"ECCENTRICITY":0.00112849,"INCLINATION":50.0082,"RA_OF_ASC_NODE":78.1692,"ARG_OF_PERICENTER":299.739,"MEAN_ANOMALY":180.142,"EPHEMERIS_TYPE":0,"CLASSIFICATION_TYPE":"U","NORAD_CAT_ID":16908,"ELEMENT_SET_NO":999,"REV_AT_EPOCH":46861,"BSTAR":8.3784613e-5,"MEAN_MOTION_DOT":-8.5e-7,"MEAN_MOTION_DDOT":0},{"OBJECT_NAME":"SL-14 R/B","OBJECT_ID":"1987-024B","EPOCH":"2026-03-14T13:17:29.265216","MEAN_MOTION":14.86137279,"ECCENTRICITY":0.00168209,"INCLINATION":82.5245,"RA_OF_ASC_NODE":88.1906,"ARG_OF_PERICENTER":242.4341,"MEAN_ANOMALY":117.5167,"EPHEMERIS_TYPE":0,"CLASSIFICATION_TYPE":"U","NORAD_CAT_ID":17567,"ELEMENT_SET_NO":999,"REV_AT_EPOCH":8885,"BSTAR":5.9739036e-5,"MEAN_MOTION_DOT":5.49e-6,"MEAN_MOTION_DDOT":0},{"OBJECT_NAME":"COSMOS 1833","OBJECT_ID":"1987-027A","EPOCH":"2026-03-14T14:28:35.152032","MEAN_MOTION":14.13053461,"ECCENTRICITY":0.00240187,"INCLINATION":70.9212,"RA_OF_ASC_NODE":315.6925,"ARG_OF_PERICENTER":207.5556,"MEAN_ANOMALY":152.4294,"EPHEMERIS_TYPE":0,"CLASSIFICATION_TYPE":"U","NORAD_CAT_ID":17589,"ELEMENT_SET_NO":999,"REV_AT_EPOCH":1101,"BSTAR":-8.0385315e-5,"MEAN_MOTION_DOT":-1.99e-6,"MEAN_MOTION_DDOT":0},{"OBJECT_NAME":"SL-16 R/B","OBJECT_ID":"1987-027B","EPOCH":"2026-03-14T13:30:09.907488","MEAN_MOTION":14.17166603,"ECCENTRICITY":0.00031949,"INCLINATION":70.9992,"RA_OF_ASC_NODE":266.2256,"ARG_OF_PERICENTER":131.6767,"MEAN_ANOMALY":228.463,"EPHEMERIS_TYPE":0,"CLASSIFICATION_TYPE":"U","NORAD_CAT_ID":17590,"ELEMENT_SET_NO":999,"REV_AT_EPOCH":1603,"BSTAR":3.8319119e-5,"MEAN_MOTION_DOT":2.9e-7,"MEAN_MOTION_DDOT":0},{"OBJECT_NAME":"SL-14 R/B","OBJECT_ID":"1987-038B","EPOCH":"2026-03-14T14:50:51.576864","MEAN_MOTION":14.85374253,"ECCENTRICITY":0.00200796,"INCLINATION":82.4993,"RA_OF_ASC_NODE":292.1639,"ARG_OF_PERICENTER":144.6941,"MEAN_ANOMALY":215.561,"EPHEMERIS_TYPE":0,"CLASSIFICATION_TYPE":"U","NORAD_CAT_ID":17912,"ELEMENT_SET_NO":999,"REV_AT_EPOCH":7996,"BSTAR":5.7451948e-5,"MEAN_MOTION_DOT":5.2e-6,"MEAN_MOTION_DDOT":0},{"OBJECT_NAME":"COSMOS 1844","OBJECT_ID":"1987-041A","EPOCH":"2026-03-14T13:29:53.589984","MEAN_MOTION":14.14551376,"ECCENTRICITY":0.00302818,"INCLINATION":70.9004,"RA_OF_ASC_NODE":23.8973,"ARG_OF_PERICENTER":10.7011,"MEAN_ANOMALY":349.4748,"EPHEMERIS_TYPE":0,"CLASSIFICATION_TYPE":"U","NORAD_CAT_ID":17973,"ELEMENT_SET_NO":999,"REV_AT_EPOCH":427,"BSTAR":-2.5844957e-5,"MEAN_MOTION_DOT":-9.8e-7,"MEAN_MOTION_DDOT":0},{"OBJECT_NAME":"SL-14 R/B","OBJECT_ID":"1987-055B","EPOCH":"2026-03-14T11:02:22.632288","MEAN_MOTION":14.85635434,"ECCENTRICITY":0.00207221,"INCLINATION":82.5029,"RA_OF_ASC_NODE":344.5368,"ARG_OF_PERICENTER":2.3194,"MEAN_ANOMALY":357.8114,"EPHEMERIS_TYPE":0,"CLASSIFICATION_TYPE":"U","NORAD_CAT_ID":18153,"ELEMENT_SET_NO":999,"REV_AT_EPOCH":7064,"BSTAR":6.142791e-5,"MEAN_MOTION_DOT":5.58e-6,"MEAN_MOTION_DDOT":0},{"OBJECT_NAME":"COSMOS 1867","OBJECT_ID":"1987-060A","EPOCH":"2026-03-14T14:39:52.529760","MEAN_MOTION":14.31503833,"ECCENTRICITY":0.00145693,"INCLINATION":65.0103,"RA_OF_ASC_NODE":292.9233,"ARG_OF_PERICENTER":278.9427,"MEAN_ANOMALY":81.0008,"EPHEMERIS_TYPE":0,"CLASSIFICATION_TYPE":"U","NORAD_CAT_ID":18187,"ELEMENT_SET_NO":999,"REV_AT_EPOCH":2064,"BSTAR":3.4449784e-5,"MEAN_MOTION_DOT":-8.0e-8,"MEAN_MOTION_DDOT":0},{"OBJECT_NAME":"SL-14 R/B","OBJECT_ID":"1988-001B","EPOCH":"2026-03-14T14:10:06.331584","MEAN_MOTION":14.85534531,"ECCENTRICITY":0.00171455,"INCLINATION":82.5159,"RA_OF_ASC_NODE":190.752,"ARG_OF_PERICENTER":218.4772,"MEAN_ANOMALY":141.5223,"EPHEMERIS_TYPE":0,"CLASSIFICATION_TYPE":"U","NORAD_CAT_ID":18749,"ELEMENT_SET_NO":999,"REV_AT_EPOCH":4275,"BSTAR":7.3004253e-5,"MEAN_MOTION_DOT":6.56e-6,"MEAN_MOTION_DDOT":0},{"OBJECT_NAME":"COSMOS 1933","OBJECT_ID":"1988-020A","EPOCH":"2026-03-14T12:52:06.982752","MEAN_MOTION":15.18037175,"ECCENTRICITY":0.00042931,"INCLINATION":82.5105,"RA_OF_ASC_NODE":246.1158,"ARG_OF_PERICENTER":166.919,"MEAN_ANOMALY":193.2156,"EPHEMERIS_TYPE":0,"CLASSIFICATION_TYPE":"U","NORAD_CAT_ID":18958,"ELEMENT_SET_NO":999,"REV_AT_EPOCH":5096,"BSTAR":0.00028845292,"MEAN_MOTION_DOT":5.9e-5,"MEAN_MOTION_DDOT":0},{"OBJECT_NAME":"SL-3 R/B","OBJECT_ID":"1988-032B","EPOCH":"2026-03-14T14:30:09.506880","MEAN_MOTION":15.19973637,"ECCENTRICITY":0.00248047,"INCLINATION":97.5194,"RA_OF_ASC_NODE":56.8378,"ARG_OF_PERICENTER":213.3846,"MEAN_ANOMALY":146.5826,"EPHEMERIS_TYPE":0,"CLASSIFICATION_TYPE":"U","NORAD_CAT_ID":19046,"ELEMENT_SET_NO":999,"REV_AT_EPOCH":5285,"BSTAR":0.00030443741,"MEAN_MOTION_DOT":6.535e-5,"MEAN_MOTION_DDOT":0},{"OBJECT_NAME":"SL-16 R/B","OBJECT_ID":"1988-039B","EPOCH":"2026-03-14T10:04:00.884352","MEAN_MOTION":14.19616514,"ECCENTRICITY":0.0023033,"INCLINATION":71.014,"RA_OF_ASC_NODE":58.5454,"ARG_OF_PERICENTER":327.4396,"MEAN_ANOMALY":32.5307,"EPHEMERIS_TYPE":0,"CLASSIFICATION_TYPE":"U","NORAD_CAT_ID":19120,"ELEMENT_SET_NO":999,"REV_AT_EPOCH":95905,"BSTAR":0.00010740786,"MEAN_MOTION_DOT":1.79e-6,"MEAN_MOTION_DDOT":0},{"OBJECT_NAME":"COSMOS 1953","OBJECT_ID":"1988-050A","EPOCH":"2026-03-14T14:25:08.445216","MEAN_MOTION":15.28617844,"ECCENTRICITY":0.00125892,"INCLINATION":82.5102,"RA_OF_ASC_NODE":153.3084,"ARG_OF_PERICENTER":107.0522,"MEAN_ANOMALY":253.2098,"EPHEMERIS_TYPE":0,"CLASSIFICATION_TYPE":"U","NORAD_CAT_ID":19210,"ELEMENT_SET_NO":999,"REV_AT_EPOCH":3853,"BSTAR":0.00034927428,"MEAN_MOTION_DOT":9.776e-5,"MEAN_MOTION_DDOT":0}]
