SL-14 R/B               
1 16496U 86006B   26073.56785167  .00000865  00000+0  89508-4 0  9991
2 16496  82.5236 255.1447 0075092 256.2867 102.9982 14.86823027149939
COSMOS 1743             
1 16719U 86034A   26073.52102420  .00048940  00000+0  62794-3 0  9994
2 16719  82.5290  68.7583 0001693 244.7461 115.3620 15.58934649181008
SL-14 R/B               
1 16792U 86046B   26073.52217360  .00000574  00000+0  63320-4 0  9996
2 16792  82.4783  75.6140 0022297 208.6883 151.3108 14.85595769127120
SL-14 R/B               
1 16882U 86055B   26073.60199108  .00000490  00000+0  53664-4 0  9991
2 16882  82.5191 122.0567 0017801 319.5789 192.9597 14.85647601120091
AJISAI (EGS)            
1 16908U 86061A   26073.62549173 -.00000085  00000+0  83785-4 0  9998
2 16908  50.0082  78.1692 0011284 299.7390 180.1420 12.44515690468617
SL-14 R/B               
1 17567U 87024B   26073.55381094  .00000549  00000+0  59739-4 0  9994
2 17567  82.5245  88.1906 0016820 242.4341 117.5167 14.86137279 88858
COSMOS 1833             
1 17589U 87027A   26073.60318463 -.00000199  00000+0 -80385-4 0  9991
2 17589  70.9212 315.6925 0024018 207.5556 152.4294 14.13053461 11017
SL-16 R/B               
1 17590U 87027B   26073.56261467  .00000029  00000+0  38319-4 0  9999
2 17590  70.9992 266.2256 0003194 131.6767 228.4630 14.17166603 16037
SL-14 R/B               
1 17912U 87038B   26073.61865251  .00000520  00000+0  57452-4 0  9991
2 17912  82.4993 292.1639 0020079 144.6941 215.5610 14.85374253 79969
COSMOS 1844             
1 17973U 87041A   26073.56242581 -.00000098  00000+0 -25845-4 0  9994
2 17973  70.9004  23.8973 0030281  10.7011 349.4748 14.14551376  4274
SL-14 R/B               
1 18153U 87055B   26073.45998417  .00000558  00000+0  61428-4 0  9990
2 18153  82.5029 344.5368 0020722   2.3194 357.8114 14.85635434 70640
COSMOS 1867             
1 18187U 87060A   26073.61102465 -.00000008  00000+0  34450-4 0  9997
2 18187  65.0103 292.9233 0014569 278.9427  81.0008 14.31503833 20646
SL-14 R/B               
1 18749U 88001B   26073.59035106  .00000656  00000+0  73004-4 0  9997
2 18749  82.5159 190.7520 0017145 218.4772 141.5223 14.85534531 42759
COSMOS 1933             
1 18958U 88020A   26073.53619193  .00005900  00000+0  28845-3 0  9997
2 18958  82.5105 246.1158 0004293 166.9190 193.2156 15.18037175 50966
SL-3 R/B                
1 19046U 88032B   26073.60427670  .00006535  00000+0  30444-3 0  9997
2 19046  97.5194  56.8378 0024804 213.3846 146.5826 15.19973637 52852
SL-16 R/B               
1 19120U 88039B   26073.41945468  .00000179  00000+0  10741-3 0  9992
2 19120  71.0140  58.5454 0023033 327.4396  32.5307 14.19616514959050
COSMOS 1953             
1 19210U 88050A   26073.60079219  .00009776  00000+0  34927-3 0  9992
2 19210  82.5102 153.3084 0012589 107.0522 253.2098 15.28617844 38533
